DECODE 2-LINE ELSETS WITH THE FOLLOWING KEY:
1 AAAAAU 00  0  0 BBBBB.BBBBBBBB  .CCCCCCCC  00000-0  00000-0 0  DDDZ
2 AAAAA EEE.EEEE FFF.FFFF GGGGGGG HHH.HHHH III.IIII JJ.JJJJJJJJKKKKKZ
KEY: A-CATALOGNUM B-EPOCHTIME C-DECAY D-ELSETNUM E-INCLINATION F-RAAN
G-ECCENTRICITY H-ARGPERIGEE I-MNANOM J-MNMOTION K-ORBITNUM Z-CHECKSUM

TO ALL RADIO AMATEURS BT

AO-07
1 07530U 74089B   15028.89432422 -.00000037  00000-0  38403-4 0  1808
2 07530 101.5035 008.5341 0011752 213.4935 174.7630 12.53611465839806
FO-29
1 24278U 96046B   15028.90429457 -.00000014  00000-0  18998-4 0  5692
2 24278 098.5240 016.6501 0351356 072.0931 320.5835 13.53042019911192
SO-33
1 25509U 98061B   15029.25359755  .00000522  00000-0  89136-4 0  9331
2 25509 031.4335 319.2205 0348577 295.3435 233.9451 14.29813480849524
RS-22
1 27939U 03042A   15029.44657949  .00000902  00000-0  17368-3 0  2604
2 27939 097.8244 197.6622 0013938 107.5494 252.7231 14.65742688605861
HO-68
1 36122U 09072B   15029.38063287 -.00000060  00000-0 -43517-4 0  3431
2 36122 100.2157 079.0204 0007697 078.1580 282.0398 13.16323508246198
AO-73
1 39444U 13066AE  15028.40673339  .00001980  00000-0  26390-3 0  3682
2 39444 097.7492 096.2316 0059853 230.1642 129.4295 14.79515305 62740
EO-79
1 40025U 14033R   15029.37968183  .00002032  00000-0  23613-3 0  6569
2 40025 097.9640 289.4026 0012033 282.7103 077.2764 14.86428918 33179
UO-11
1 14781U 84021B   15028.77076269  .00000867  00000-0  11543-3 0  7273
2 14781 097.8213 089.1689 0009467 158.8400 201.3206 14.82114136661374
AO-16
1 20439U 90005D   15029.07481576  .00000131  00000-0  64236-4 0  2293
2 20439 098.5303 327.4038 0010474 206.0223 218.8056 14.32479105306821
LO-19
1 20442U 90005G   15028.38830616  .00000108  00000-0  55761-4 0  1615
2 20442 098.5013 326.7064 0011630 196.6440 163.4364 14.32674921306925
CHASQUI-1
1 40117U 98067ET  15014.73322295  .07508583  12315-4  10026-2 0  4726
2 40117 051.6189 112.4445 0004239 337.2783 022.7551 16.34635278 23368
