Satellite: CHASQUI-1
Catalog number: 40117
Epoch time:      15014.73322295
Element set:     472
Inclination:      051.6189 deg
RA of node:       112.4445 deg
Eccentricity:    0.0004239
Arg of perigee:   337.2783 deg
Mean anomaly:     022.7551 deg
Mean motion:   16.34635278 rev/day
Decay rate:   7.508583e-02 rev/day^2
Epoch rev:            2336
Checksum:              296

Satellite: AO-07
Catalog number: 07530
Epoch time:      15028.89432422
Element set:     180
Inclination:      101.5035 deg
RA of node:       008.5341 deg
Eccentricity:    0.0011752
Arg of perigee:   213.4935 deg
Mean anomaly:     174.7630 deg
Mean motion:   12.53611465 rev/day
Decay rate:       -3.7e-07 rev/day^2
Epoch rev:           83980
Checksum:              272

Satellite: FO-29
Catalog number: 24278
Epoch time:      15028.90429457
Element set:     569
Inclination:      098.5240 deg
RA of node:       016.6501 deg
Eccentricity:    0.0351356
Arg of perigee:   072.0931 deg
Mean anomaly:     320.5835 deg
Mean motion:   13.53042019 rev/day
Decay rate:       -1.4e-07 rev/day^2
Epoch rev:           91119
Checksum:              294

Satellite: SO-33
Catalog number: 25509
Epoch time:      15029.25359755
Element set:     933
Inclination:      031.4335 deg
RA of node:       319.2205 deg
Eccentricity:    0.0348577
Arg of perigee:   295.3435 deg
Mean anomaly:     233.9451 deg
Mean motion:   14.29813480 rev/day
Decay rate:       5.22e-06 rev/day^2
Epoch rev:           84952
Checksum:              320

Satellite: RS-22
Catalog number: 27939
Epoch time:      15029.44657949
Element set:     260
Inclination:      097.8244 deg
RA of node:       197.6622 deg
Eccentricity:    0.0013938
Arg of perigee:   107.5494 deg
Mean anomaly:     252.7231 deg
Mean motion:   14.65742688 rev/day
Decay rate:       9.02e-06 rev/day^2
Epoch rev:           60586
Checksum:              347

Satellite: HO-68
Catalog number: 36122
Epoch time:      15029.38063287
Element set:     343
Inclination:      100.2157 deg
RA of node:       079.0204 deg
Eccentricity:    0.0007697
Arg of perigee:   078.1580 deg
Mean anomaly:     282.0398 deg
Mean motion:   13.16323508 rev/day
Decay rate:       -6.0e-07 rev/day^2
Epoch rev:           24619
Checksum:              292

Satellite: AO-73
Catalog number: 39444
Epoch time:      15028.40673339
Element set:     368
Inclination:      097.7492 deg
RA of node:       096.2316 deg
Eccentricity:    0.0059853
Arg of perigee:   230.1642 deg
Mean anomaly:     129.4295 deg
Mean motion:   14.79515305 rev/day
Decay rate:      1.980e-05 rev/day^2
Epoch rev:            6274
Checksum:              333

Satellite: EO-79
Catalog number: 40025
Epoch time:      15029.37968183
Element set:     656
Inclination:      097.9640 deg
RA of node:       289.4026 deg
Eccentricity:    0.0012033
Arg of perigee:   282.7103 deg
Mean anomaly:     077.2764 deg
Mean motion:   14.86428918 rev/day
Decay rate:      2.032e-05 rev/day^2
Epoch rev:            3317
Checksum:              318

/EX
SB KEPS @ AMSAT  $ORB15029.D
Orbital Elements  15029.MICROS

HR AMSAT ORBITAL ELEMENTS FOR THE MICROSATS
FROM WA5QGD FORT WORTH,TX January 29, 2015
BID: ORB15029.D
TO ALL RADIO AMATEURS BT

Satellite: UO-11
Catalog number: 14781
Epoch time:      15028.77076269
Element set:     727
Inclination:      097.8213 deg
RA of node:       089.1689 deg
Eccentricity:    0.0009467
Arg of perigee:   158.8400 deg
Mean anomaly:     201.3206 deg
Mean motion:   14.82114136 rev/day
Decay rate:       8.67e-06 rev/day^2
Epoch rev:           66137
Checksum:              321

Satellite: AO-16
Catalog number: 20439
Epoch time:      15029.07481576
Element set:     229
Inclination:      098.5303 deg
RA of node:       327.4038 deg
Eccentricity:    0.0010474
Arg of perigee:   206.0223 deg
Mean anomaly:     218.8056 deg
Mean motion:   14.32479105 rev/day
Decay rate:       1.31e-06 rev/day^2
Epoch rev:           30682
Checksum:              279

Satellite: LO-19
Catalog number: 20442
Epoch time:      15028.38830616
Element set:     161
Inclination:      098.5013 deg
RA of node:       326.7064 deg
Eccentricity:    0.0011630
Arg of perigee:   196.6440 deg
Mean anomaly:     163.4364 deg
Mean motion:   14.32674921 rev/day
Decay rate:       1.08e-06 rev/day^2
Epoch rev:           30692
Checksum:              281

